{
"type": "FeatureCollection",
"name": "wayanad_relocation_flows",
"crs": { "type": "name", "properties": { "name": "urn:ogc:def:crs:OGC:1.3:CRS84" } },
"features": [
{ "type": "Feature", "properties": { "from_cell": "WAY_HEX_0114", "to_site": "SAFE_SITE_000", "people_moved": 1637, "distance_km": 49.67, "origin_risk": 73.71, "destination_suitability": 84.65 }, "geometry": { "type": "LineString", "coordinates": [ [ 75.85562920481847, 11.762460002092626 ], [ 76.284399887969414, 11.61051248982038 ] ] } },
{ "type": "Feature", "properties": { "from_cell": "WAY_HEX_0114", "to_site": "SAFE_SITE_015", "people_moved": 1238, "distance_km": 45.58, "origin_risk": 73.71, "destination_suitability": 83.0 }, "geometry": { "type": "LineString", "coordinates": [ [ 75.85562920481847, 11.762460002092626 ], [ 76.268275765854369, 11.69515014449494 ] ] } },
{ "type": "Feature", "properties": { "from_cell": "WAY_HEX_0114", "to_site": "SAFE_SITE_014", "people_moved": 475, "distance_km": 49.49, "origin_risk": 73.71, "destination_suitability": 82.54 }, "geometry": { "type": "LineString", "coordinates": [ [ 75.85562920481847, 11.762460002092626 ], [ 76.301213300369156, 11.676210308295698 ] ] } },
{ "type": "Feature", "properties": { "from_cell": "WAY_HEX_0114", "to_site": "SAFE_SITE_033", "people_moved": 2116, "distance_km": 42.44, "origin_risk": 73.71, "destination_suitability": 81.34 }, "geometry": { "type": "LineString", "coordinates": [ [ 75.85562920481847, 11.762460002092626 ], [ 76.235166799795024, 11.676501966949562 ] ] } },
{ "type": "Feature", "properties": { "from_cell": "WAY_HEX_0114", "to_site": "SAFE_SITE_032", "people_moved": 1345, "distance_km": 41.52, "origin_risk": 73.71, "destination_suitability": 78.9 }, "geometry": { "type": "LineString", "coordinates": [ [ 75.85562920481847, 11.762460002092626 ], [ 76.218531930787037, 11.64838376666744 ] ] } }
]
}
