{
  "type": "FeatureCollection",
  "name": "wayanad_settlements",
  "crs": {
    "type": "name",
    "properties": { "name": "urn:ogc:def:crs:OGC:1.3:CRS84" }
  },
  "features": [
    {
      "type": "Feature",
      "properties": {
        "element": "node",
        "id": 245596484,
        "place": "town",
        "name": "Kalpetta"
      },
      "geometry": { "type": "Point", "coordinates": [76.08281, 11.610278] }
    },
    {
      "type": "Feature",
      "properties": {
        "element": "node",
        "id": 245598955,
        "place": "village",
        "name": "Periya"
      },
      "geometry": { "type": "Point", "coordinates": [75.8550205, 11.8334589] }
    },
    {
      "type": "Feature",
      "properties": {
        "element": "node",
        "id": 290208730,
        "place": "village",
        "name": "Bavali"
      },
      "geometry": { "type": "Point", "coordinates": [76.1169799, 11.8564375] }
    },
    {
      "type": "Feature",
      "properties": {
        "element": "node",
        "id": 290210470,
        "place": "village",
        "name": "Vythiri"
      },
      "geometry": { "type": "Point", "coordinates": [76.038922, 11.5560885] }
    },
    {
      "type": "Feature",
      "properties": {
        "element": "node",
        "id": 340369491,
        "place": "village",
        "name": "Meppadi"
      },
      "geometry": { "type": "Point", "coordinates": [76.1320079, 11.5529455] }
    },
    {
      "type": "Feature",
      "properties": {
        "element": "node",
        "id": 393111659,
        "place": "town",
        "name": "Sultan Bathery"
      },
      "geometry": { "type": "Point", "coordinates": [76.259553, 11.6631885] }
    },
    {
      "type": "Feature",
      "properties": {
        "element": "node",
        "id": 418783647,
        "place": "village",
        "name": "Vaduvanchal"
      },
      "geometry": { "type": "Point", "coordinates": [76.2226984, 11.5548347] }
    },
    {
      "type": "Feature",
      "properties": {
        "element": "node",
        "id": 589981492,
        "place": "village",
        "name": "Makkiyad"
      },
      "geometry": { "type": "Point", "coordinates": [75.899907, 11.741282] }
    },
    {
      "type": "Feature",
      "properties": {
        "element": "node",
        "id": 589981556,
        "place": "village",
        "name": "Vellmunda"
      },
      "geometry": { "type": "Point", "coordinates": [75.936209, 11.73389] }
    },
    {
      "type": "Feature",
      "properties": {
        "element": "node",
        "id": 589983022,
        "place": "town",
        "name": "Mananthavady"
      },
      "geometry": { "type": "Point", "coordinates": [76.0056565, 11.8010338] }
    },
    {
      "type": "Feature",
      "properties": {
        "element": "node",
        "id": 589983035,
        "place": "village",
        "name": "Naalam Mile"
      },
      "geometry": { "type": "Point", "coordinates": [76.0070307, 11.7560081] }
    },
    {
      "type": "Feature",
      "properties": {
        "element": "node",
        "id": 589983049,
        "place": "village",
        "name": "Pallikkal"
      },
      "geometry": { "type": "Point", "coordinates": [75.976909, 11.7772588] }
    },
    {
      "type": "Feature",
      "properties": {
        "element": "node",
        "id": 589983065,
        "place": "village",
        "name": "Kammom"
      },
      "geometry": { "type": "Point", "coordinates": [75.968141, 11.770161] }
    },
    {
      "type": "Feature",
      "properties": {
        "element": "node",
        "id": 589983082,
        "place": "village",
        "name": "Kallody"
      },
      "geometry": { "type": "Point", "coordinates": [75.961316, 11.765701] }
    },
    {
      "type": "Feature",
      "properties": {
        "element": "node",
        "id": 589983101,
        "place": "village",
        "name": "Mazhuvannur"
      },
      "geometry": { "type": "Point", "coordinates": [75.987075, 11.7347967] }
    },
    {
      "type": "Feature",
      "properties": {
        "element": "node",
        "id": 589983118,
        "place": "village",
        "name": "Kellur"
      },
      "geometry": { "type": "Point", "coordinates": [76.008865, 11.7522667] }
    },
    {
      "type": "Feature",
      "properties": {
        "element": "node",
        "id": 589983132,
        "place": "village",
        "name": "Peechamcode"
      },
      "geometry": { "type": "Point", "coordinates": [76.0013675, 11.7502953] }
    },
    {
      "type": "Feature",
      "properties": {
        "element": "node",
        "id": 589983152,
        "place": "village",
        "name": "Ancham Mile"
      },
      "geometry": { "type": "Point", "coordinates": [76.0176012, 11.7495087] }
    },
    {
      "type": "Feature",
      "properties": {
        "element": "node",
        "id": 842387503,
        "place": "village",
        "name": "Pozhuthana"
      },
      "geometry": { "type": "Point", "coordinates": [76.0185741, 11.5876934] }
    },
    {
      "type": "Feature",
      "properties": {
        "element": "node",
        "id": 1028506671,
        "place": "village",
        "name": "Thariode"
      },
      "geometry": { "type": "Point", "coordinates": [75.9962709, 11.6427112] }
    },
    {
      "type": "Feature",
      "properties": {
        "element": "node",
        "id": 1028506678,
        "place": "village",
        "name": "Kaavumannam"
      },
      "geometry": { "type": "Point", "coordinates": [76.0085635, 11.6383895] }
    },
    {
      "type": "Feature",
      "properties": {
        "element": "node",
        "id": 1028506688,
        "place": "village",
        "name": "Vengappally"
      },
      "geometry": { "type": "Point", "coordinates": [76.04583, 11.6107661] }
    },
    {
      "type": "Feature",
      "properties": {
        "element": "node",
        "id": 1670570469,
        "place": "village",
        "name": "Tholpetty"
      },
      "geometry": { "type": "Point", "coordinates": [76.0615339, 11.9453756] }
    },
    {
      "type": "Feature",
      "properties": {
        "element": "node",
        "id": 2000159644,
        "place": "village",
        "name": "Dwaraka"
      },
      "geometry": { "type": "Point", "coordinates": [76.0063045, 11.7584401] }
    },
    {
      "type": "Feature",
      "properties": {
        "element": "node",
        "id": 2329757020,
        "place": "village",
        "name": "Meenangadi"
      },
      "geometry": { "type": "Point", "coordinates": [76.1668396, 11.6594656] }
    },
    {
      "type": "Feature",
      "properties": {
        "element": "node",
        "id": 2625154823,
        "place": "village",
        "name": "Eachome"
      },
      "geometry": { "type": "Point", "coordinates": [76.0428388, 11.6953539] }
    },
    {
      "type": "Feature",
      "properties": {
        "element": "node",
        "id": 2625295559,
        "place": "village",
        "name": "Tharuvana"
      },
      "geometry": { "type": "Point", "coordinates": [75.9787894, 11.737252] }
    },
    {
      "type": "Feature",
      "properties": {
        "element": "node",
        "id": 2625625974,
        "place": "village",
        "name": "Thonichal"
      },
      "geometry": { "type": "Point", "coordinates": [76.0004919, 11.7715455] }
    },
    {
      "type": "Feature",
      "properties": {
        "element": "node",
        "id": 2638420940,
        "place": "village",
        "name": "Kattikkulam"
      },
      "geometry": { "type": "Point", "coordinates": [76.0630926, 11.8474605] }
    },
    {
      "type": "Feature",
      "properties": {
        "element": "node",
        "id": 2638421365,
        "place": "village",
        "name": "Anaappara"
      },
      "geometry": { "type": "Point", "coordinates": [76.0368747, 11.8464372] }
    },
    {
      "type": "Feature",
      "properties": {
        "element": "node",
        "id": 2639127941,
        "place": "hamlet",
        "name": "Rande Naal"
      },
      "geometry": { "type": "Point", "coordinates": [75.9783956, 11.7808242] }
    },
    {
      "type": "Feature",
      "properties": {
        "element": "node",
        "id": 2639127942,
        "place": "village",
        "name": "Pannichal"
      },
      "geometry": { "type": "Point", "coordinates": [75.9835228, 11.7827212] }
    },
    {
      "type": "Feature",
      "properties": {
        "element": "node",
        "id": 2639128114,
        "place": "village",
        "name": "Orappu"
      },
      "geometry": { "type": "Point", "coordinates": [75.9497528, 11.7826705] }
    },
    {
      "type": "Feature",
      "properties": {
        "element": "node",
        "id": 2639128136,
        "place": "village",
        "name": "Ellumannam"
      },
      "geometry": { "type": "Point", "coordinates": [75.9624206, 11.7857976] }
    },
    {
      "type": "Feature",
      "properties": {
        "element": "node",
        "id": 2639128189,
        "place": "village",
        "name": "Veettichal"
      },
      "geometry": { "type": "Point", "coordinates": [75.972534, 11.7720298] }
    },
    {
      "type": "Feature",
      "properties": {
        "element": "node",
        "id": 2640101975,
        "place": "village",
        "name": "54"
      },
      "geometry": { "type": "Point", "coordinates": [76.0421877, 11.8287055] }
    },
    {
      "type": "Feature",
      "properties": {
        "element": "node",
        "id": 2640226674,
        "place": "village",
        "name": "Ancham Peedika"
      },
      "geometry": { "type": "Point", "coordinates": [75.9416971, 11.7546872] }
    },
    {
      "type": "Feature",
      "properties": {
        "element": "node",
        "id": 2640226704,
        "place": "village",
        "name": "Thettamala"
      },
      "geometry": { "type": "Point", "coordinates": [75.9322986, 11.7471296] }
    },
    {
      "type": "Feature",
      "properties": {
        "element": "node",
        "id": 2640226800,
        "place": "village",
        "name": "Chettapalam"
      },
      "geometry": { "type": "Point", "coordinates": [76.0152701, 11.8095157] }
    },
    {
      "type": "Feature",
      "properties": {
        "element": "node",
        "id": 2640226801,
        "place": "village",
        "name": "Ondayangadi"
      },
      "geometry": { "type": "Point", "coordinates": [76.0252641, 11.8243992] }
    },
    {
      "type": "Feature",
      "properties": {
        "element": "node",
        "id": 2640226802,
        "place": "village",
        "name": "Thrissilery"
      },
      "geometry": { "type": "Point", "coordinates": [76.0439966, 11.8561401] }
    },
    {
      "type": "Feature",
      "properties": {
        "element": "node",
        "id": 2640251370,
        "place": "village",
        "name": "Appapara"
      },
      "geometry": { "type": "Point", "coordinates": [76.0330133, 11.9051947] }
    },
    {
      "type": "Feature",
      "properties": {
        "element": "node",
        "id": 2640251422,
        "place": "village",
        "name": "Thirunelli"
      },
      "geometry": { "type": "Point", "coordinates": [75.994875, 11.9098981] }
    },
    {
      "type": "Feature",
      "properties": {
        "element": "node",
        "id": 2640264736,
        "place": "village",
        "name": "Thalappuzha"
      },
      "geometry": { "type": "Point", "coordinates": [75.9538774, 11.8406506] }
    },
    {
      "type": "Feature",
      "properties": {
        "element": "node",
        "id": 2640668694,
        "place": "town",
        "name": "Panamaram"
      },
      "geometry": { "type": "Point", "coordinates": [76.0731104, 11.7390969] }
    },
    {
      "type": "Feature",
      "properties": {
        "element": "node",
        "id": 2640992025,
        "place": "village",
        "name": "Koyilery"
      },
      "geometry": { "type": "Point", "coordinates": [76.0455379, 11.786852] }
    },
    {
      "type": "Feature",
      "properties": {
        "element": "node",
        "id": 2640992026,
        "place": "village",
        "name": "Cherukattoor"
      },
      "geometry": { "type": "Point", "coordinates": [76.0611498, 11.7685286] }
    },
    {
      "type": "Feature",
      "properties": {
        "element": "node",
        "id": 2640992027,
        "place": "village",
        "name": "Kappunchal"
      },
      "geometry": { "type": "Point", "coordinates": [76.0592615, 11.7594011] }
    },
    {
      "type": "Feature",
      "properties": {
        "element": "node",
        "id": 2640992028,
        "place": "village",
        "name": "Anjukunnu"
      },
      "geometry": { "type": "Point", "coordinates": [76.0372835, 11.7526104] }
    },
    {
      "type": "Feature",
      "properties": {
        "element": "node",
        "id": 2640992029,
        "place": "village",
        "name": "Aaraam Mile (6th mile)"
      },
      "geometry": { "type": "Point", "coordinates": [76.0270696, 11.7542227] }
    },
    {
      "type": "Feature",
      "properties": {
        "element": "node",
        "id": 2640992030,
        "place": "village",
        "name": "Vilambukandam"
      },
      "geometry": { "type": "Point", "coordinates": [76.0382866, 11.7118416] }
    },
    {
      "type": "Feature",
      "properties": {
        "element": "node",
        "id": 2640992061,
        "place": "village",
        "name": "Pachilakkadu"
      },
      "geometry": { "type": "Point", "coordinates": [76.0795012, 11.7108561] }
    },
    {
      "type": "Feature",
      "properties": {
        "element": "node",
        "id": 2640992128,
        "place": "village",
        "name": "Varummal kadavu"
      },
      "geometry": { "type": "Point", "coordinates": [76.0391235, 11.7221158] }
    },
    {
      "type": "Feature",
      "properties": {
        "element": "node",
        "id": 2641011701,
        "place": "village",
        "name": "Peruvaka"
      },
      "geometry": { "type": "Point", "coordinates": [76.0130524, 11.7896132] }
    },
    {
      "type": "Feature",
      "properties": {
        "element": "node",
        "id": 2641559288,
        "place": "village",
        "name": "Boy's Town"
      },
      "geometry": { "type": "Point", "coordinates": [75.920034, 11.8398632] }
    },
    {
      "type": "Feature",
      "properties": {
        "element": "node",
        "id": 2641570697,
        "place": "village",
        "name": "Kunjome"
      },
      "geometry": { "type": "Point", "coordinates": [75.8530636, 11.7627231] }
    },
    {
      "type": "Feature",
      "properties": {
        "element": "node",
        "id": 2642155998,
        "place": "village",
        "name": "Payyampalli"
      },
      "geometry": { "type": "Point", "coordinates": [76.055507, 11.810523] }
    },
    {
      "type": "Feature",
      "properties": {
        "element": "node",
        "id": 2642156372,
        "place": "village",
        "name": "Kammana"
      },
      "geometry": { "type": "Point", "coordinates": [76.0177737, 11.7827341] }
    },
    {
      "type": "Feature",
      "properties": {
        "element": "node",
        "id": 2642193417,
        "place": "village",
        "name": "Kambalakkad"
      },
      "geometry": { "type": "Point", "coordinates": [76.0746238, 11.6775554] }
    },
    {
      "type": "Feature",
      "properties": {
        "element": "node",
        "id": 2642202115,
        "place": "village",
        "name": "Nadakkal"
      },
      "geometry": { "type": "Point", "coordinates": [75.9936392, 11.7414709] }
    },
    {
      "type": "Feature",
      "properties": {
        "element": "node",
        "id": 2642213704,
        "place": "village",
        "name": "Kokkadavu"
      },
      "geometry": { "type": "Point", "coordinates": [75.9697467, 11.7383603] }
    },
    {
      "type": "Feature",
      "properties": {
        "element": "node",
        "id": 2642221352,
        "place": "village",
        "name": "Arattuthara"
      },
      "geometry": { "type": "Point", "coordinates": [76.0276658, 11.8004763] }
    },
    {
      "type": "Feature",
      "properties": {
        "element": "node",
        "id": 2642314562,
        "place": "village",
        "name": "Muthireri"
      },
      "geometry": { "type": "Point", "coordinates": [75.9425217, 11.8025977] }
    },
    {
      "type": "Feature",
      "properties": {
        "element": "node",
        "id": 2642314564,
        "place": "village",
        "name": "Pathirachal"
      },
      "geometry": { "type": "Point", "coordinates": [75.9686042, 11.7543005] }
    },
    {
      "type": "Feature",
      "properties": {
        "element": "node",
        "id": 2642592771,
        "place": "village",
        "name": "Pulinjal"
      },
      "geometry": { "type": "Point", "coordinates": [75.9386167, 11.7180336] }
    },
    {
      "type": "Feature",
      "properties": {
        "element": "node",
        "id": 2642764077,
        "place": "village",
        "name": "Changadakkadavu"
      },
      "geometry": { "type": "Point", "coordinates": [76.0027363, 11.7873956] }
    },
    {
      "type": "Feature",
      "properties": {
        "element": "node",
        "id": 2643350359,
        "place": "village",
        "name": "Thannikkal"
      },
      "geometry": { "type": "Point", "coordinates": [76.0382738, 11.799054] }
    },
    {
      "type": "Feature",
      "properties": {
        "element": "node",
        "id": 2644109544,
        "place": "village",
        "name": "Moolithodu"
      },
      "geometry": { "type": "Point", "coordinates": [75.9464374, 11.7578505] }
    },
    {
      "type": "Feature",
      "properties": {
        "element": "node",
        "id": 2644109621,
        "place": "village",
        "name": "Puthusseri"
      },
      "geometry": { "type": "Point", "coordinates": [75.9194278, 11.7727691] }
    },
    {
      "type": "Feature",
      "properties": {
        "element": "node",
        "id": 2644127603,
        "place": "village",
        "name": "Kanhirangad"
      },
      "geometry": { "type": "Point", "coordinates": [75.9088042, 11.7401547] }
    },
    {
      "type": "Feature",
      "properties": {
        "element": "node",
        "id": 2644340909,
        "place": "village",
        "name": "Palvelicham"
      },
      "geometry": { "type": "Point", "coordinates": [76.0878625, 11.8219719] }
    },
    {
      "type": "Feature",
      "properties": {
        "element": "node",
        "id": 2644369956,
        "place": "village",
        "name": "Kundala"
      },
      "geometry": { "type": "Point", "coordinates": [76.0276845, 11.7765397] }
    },
    {
      "type": "Feature",
      "properties": {
        "element": "node",
        "id": 2644369958,
        "place": "village",
        "name": "Pulikkad"
      },
      "geometry": { "type": "Point", "coordinates": [76.0162261, 11.7694816] }
    },
    {
      "type": "Feature",
      "properties": {
        "element": "node",
        "id": 2644369959,
        "place": "village",
        "name": "Pandikkadavu"
      },
      "geometry": { "type": "Point", "coordinates": [75.9981654, 11.7961764] }
    },
    {
      "type": "Feature",
      "properties": {
        "element": "node",
        "id": 2644369960,
        "place": "hamlet",
        "name": "Pathivayal"
      },
      "geometry": { "type": "Point", "coordinates": [76.0083904, 11.7955913] }
    },
    {
      "type": "Feature",
      "properties": {
        "element": "node",
        "id": 2644724676,
        "place": "village",
        "name": "Choottakadavu"
      },
      "geometry": { "type": "Point", "coordinates": [75.991047, 11.80143] }
    },
    {
      "type": "Feature",
      "properties": {
        "element": "node",
        "id": 2644731525,
        "place": "village",
        "name": "Kaniyaram"
      },
      "geometry": { "type": "Point", "coordinates": [75.9944653, 11.8135283] }
    },
    {
      "type": "Feature",
      "properties": {
        "element": "node",
        "id": 2645603008,
        "place": "hamlet",
        "name": "Pudiyadam"
      },
      "geometry": { "type": "Point", "coordinates": [76.0497635, 11.789546] }
    },
    {
      "type": "Feature",
      "properties": {
        "element": "node",
        "id": 2645603011,
        "place": "hamlet",
        "name": "Uppannada"
      },
      "geometry": { "type": "Point", "coordinates": [75.9706711, 11.7411606] }
    },
    {
      "type": "Feature",
      "properties": {
        "element": "node",
        "id": 2645712178,
        "place": "village",
        "name": "Koolivayal"
      },
      "geometry": { "type": "Point", "coordinates": [76.0475183, 11.7606266] }
    },
    {
      "type": "Feature",
      "properties": {
        "element": "node",
        "id": 2645729135,
        "place": "village",
        "name": "Porur"
      },
      "geometry": { "type": "Point", "coordinates": [75.9364046, 11.7916605] }
    },
    {
      "type": "Feature",
      "properties": {
        "element": "node",
        "id": 2645739603,
        "place": "village",
        "name": "Payingattiri"
      },
      "geometry": { "type": "Point", "coordinates": [75.990334, 11.7727134] }
    },
    {
      "type": "Feature",
      "properties": {
        "element": "node",
        "id": 2648724762,
        "place": "village",
        "name": "Kuzhinilam"
      },
      "geometry": { "type": "Point", "coordinates": [75.9882459, 11.8192132] }
    },
    {
      "type": "Feature",
      "properties": {
        "element": "node",
        "id": 2648726963,
        "place": "village",
        "name": "Pilacheri"
      },
      "geometry": { "type": "Point", "coordinates": [75.9800705, 11.8055926] }
    },
    {
      "type": "Feature",
      "properties": {
        "element": "node",
        "id": 2648730630,
        "place": "village",
        "name": "Ambukuthy"
      },
      "geometry": { "type": "Point", "coordinates": [76.0069409, 11.8148761] }
    },
    {
      "type": "Feature",
      "properties": {
        "element": "node",
        "id": 2653785043,
        "place": "hamlet",
        "name": "Thettu Road"
      },
      "geometry": { "type": "Point", "coordinates": [76.0666436, 11.9027971] }
    },
    {
      "type": "Feature",
      "properties": {
        "element": "node",
        "id": 3177030978,
        "place": "village",
        "name": "Pulpally"
      },
      "geometry": { "type": "Point", "coordinates": [76.1643871, 11.7932652] }
    },
    {
      "type": "Feature",
      "properties": {
        "element": "node",
        "id": 3259281722,
        "place": "village",
        "name": "Thonichal"
      },
      "geometry": { "type": "Point", "coordinates": [76.0016918, 11.7707383] }
    },
    {
      "type": "Feature",
      "properties": {
        "element": "node",
        "id": 3330085319,
        "place": "town",
        "name": "Muttil"
      },
      "geometry": { "type": "Point", "coordinates": [76.110624, 11.6418431] }
    },
    {
      "type": "Feature",
      "properties": {
        "element": "node",
        "id": 3842111627,
        "place": "village",
        "name": "Kainatti"
      },
      "geometry": { "type": "Point", "coordinates": [76.0894939, 11.6343825] }
    },
    {
      "type": "Feature",
      "properties": {
        "element": "node",
        "id": 3842111628,
        "place": "village",
        "name": "Kappamkolly"
      },
      "geometry": { "type": "Point", "coordinates": [76.1220971, 11.5629978] }
    },
    {
      "type": "Feature",
      "properties": {
        "element": "node",
        "id": 3842228212,
        "place": "hamlet",
        "name": "Cholamala"
      },
      "geometry": { "type": "Point", "coordinates": [76.1164004, 11.5390335] }
    },
    {
      "type": "Feature",
      "properties": {
        "element": "node",
        "id": 3842228213,
        "place": "village",
        "name": "Chooralmala"
      },
      "geometry": { "type": "Point", "coordinates": [76.1598711, 11.4992319] }
    },
    {
      "type": "Feature",
      "properties": {
        "element": "node",
        "id": 3842228214,
        "place": "village",
        "name": "Kalladi"
      },
      "geometry": { "type": "Point", "coordinates": [76.1320264, 11.5105804] }
    },
    {
      "type": "Feature",
      "properties": {
        "element": "node",
        "id": 3842228215,
        "place": "hamlet",
        "name": "Kottappady Part"
      },
      "geometry": { "type": "Point", "coordinates": [76.1217336, 11.5412066] }
    },
    {
      "type": "Feature",
      "properties": {
        "element": "node",
        "id": 3842228216,
        "place": "village",
        "name": "Nellimunda"
      },
      "geometry": { "type": "Point", "coordinates": [76.1315033, 11.5375255] }
    },
    {
      "type": "Feature",
      "properties": {
        "element": "node",
        "id": 3842282049,
        "place": "hamlet",
        "name": "Chitragiri"
      },
      "geometry": { "type": "Point", "coordinates": [76.2268263, 11.542845] }
    },
    {
      "type": "Feature",
      "properties": {
        "element": "node",
        "id": 3842282050,
        "place": "hamlet",
        "name": "Choladi"
      },
      "geometry": { "type": "Point", "coordinates": [76.2469218, 11.5280995] }
    },
    {
      "type": "Feature",
      "properties": {
        "element": "node",
        "id": 3842282051,
        "place": "village",
        "name": "Chundale"
      },
      "geometry": { "type": "Point", "coordinates": [76.0591416, 11.5740364] }
    },
    {
      "type": "Feature",
      "properties": {
        "element": "node",
        "id": 3842282053,
        "place": "village",
        "name": "Nedumkarana"
      },
      "geometry": { "type": "Point", "coordinates": [76.17896, 11.5454831] }
    },
    {
      "type": "Feature",
      "properties": {
        "element": "node",
        "id": 3842282054,
        "place": "hamlet",
        "name": "Padivayal"
      },
      "geometry": { "type": "Point", "coordinates": [76.2035175, 11.5483383] }
    },
    {
      "type": "Feature",
      "properties": {
        "element": "node",
        "id": 3842282055,
        "place": "village",
        "name": "Thinapuram"
      },
      "geometry": { "type": "Point", "coordinates": [76.1617777, 11.539575] }
    },
    {
      "type": "Feature",
      "properties": {
        "element": "node",
        "id": 3842445127,
        "place": "village",
        "name": "Padinjarethara"
      },
      "geometry": { "type": "Point", "coordinates": [75.9752486, 11.6780678] }
    },
    {
      "type": "Feature",
      "properties": {
        "element": "node",
        "id": 3903463417,
        "place": "village",
        "name": "Ambalavayal"
      },
      "geometry": { "type": "Point", "coordinates": [76.2120176, 11.6192026] }
    },
    {
      "type": "Feature",
      "properties": {
        "element": "node",
        "id": 3912949958,
        "place": "village",
        "name": "Muthanga"
      },
      "geometry": { "type": "Point", "coordinates": [76.3619141, 11.6714546] }
    },
    {
      "type": "Feature",
      "properties": {
        "element": "node",
        "id": 3922194996,
        "place": "village",
        "name": "Lakkidi"
      },
      "geometry": { "type": "Point", "coordinates": [76.0203502, 11.5205672] }
    },
    {
      "type": "Feature",
      "properties": {
        "element": "node",
        "id": 4618674486,
        "place": "village",
        "name": "Padichira"
      },
      "geometry": { "type": "Point", "coordinates": [76.1789133, 11.8396351] }
    },
    {
      "type": "Feature",
      "properties": {
        "element": "node",
        "id": 6359513296,
        "place": "hamlet",
        "name": "Meenmutty"
      },
      "geometry": { "type": "Point", "coordinates": [75.9381703, 11.6775114] }
    },
    {
      "type": "Feature",
      "properties": {
        "element": "node",
        "id": 6367702271,
        "place": "hamlet",
        "name": "Thazhe Ammaani"
      },
      "geometry": { "type": "Point", "coordinates": [76.0685794, 11.8423357] }
    },
    {
      "type": "Feature",
      "properties": {
        "element": "node",
        "id": 6367702272,
        "place": "hamlet",
        "name": "Ammaani"
      },
      "geometry": { "type": "Point", "coordinates": [76.0648786, 11.8442378] }
    },
    {
      "type": "Feature",
      "properties": {
        "element": "node",
        "id": 6367702273,
        "place": "hamlet",
        "name": "Ambedkar Colony"
      },
      "geometry": { "type": "Point", "coordinates": [76.0748196, 11.8337791] }
    },
    {
      "type": "Feature",
      "properties": {
        "element": "node",
        "id": 6367722986,
        "place": "hamlet",
        "name": "Kavikkal"
      },
      "geometry": { "type": "Point", "coordinates": [76.0877745, 11.8307555] }
    },
    {
      "type": "Feature",
      "properties": {
        "element": "node",
        "id": 6367722987,
        "place": "village",
        "name": "Puzhavayal"
      },
      "geometry": { "type": "Point", "coordinates": [76.0552513, 11.8521708] }
    },
    {
      "type": "Feature",
      "properties": {
        "element": "node",
        "id": 6705049473,
        "place": "hamlet",
        "name": "Panichipalam"
      },
      "geometry": { "type": "Point", "coordinates": [75.9611855, 11.8498948] }
    },
    {
      "type": "Feature",
      "properties": {
        "element": "node",
        "id": 6705049477,
        "place": "village",
        "name": "Cherakkara"
      },
      "geometry": { "type": "Point", "coordinates": [75.965714, 11.8523332] }
    },
    {
      "type": "Feature",
      "properties": {
        "element": "node",
        "id": 6705049478,
        "place": "village",
        "name": "SJLP School Pilakkavu"
      },
      "geometry": { "type": "Point", "coordinates": [75.9943436, 11.8445249] }
    },
    {
      "type": "Feature",
      "properties": {
        "element": "node",
        "id": 6705049479,
        "place": "village",
        "name": "Jessy"
      },
      "geometry": { "type": "Point", "coordinates": [75.9855394, 11.8523285] }
    },
    {
      "type": "Feature",
      "properties": {
        "element": "node",
        "id": 6726439383,
        "place": "village",
        "name": "Karyambadi"
      },
      "geometry": { "type": "Point", "coordinates": [76.1350705, 11.6765072] }
    },
    {
      "type": "Feature",
      "properties": {
        "element": "node",
        "id": 6726502612,
        "place": "village",
        "name": "Kenichira"
      },
      "geometry": { "type": "Point", "coordinates": [76.1524023, 11.7231089] }
    },
    {
      "type": "Feature",
      "properties": {
        "element": "node",
        "id": 6734865994,
        "place": "village",
        "name": "Koliyadi"
      },
      "geometry": { "type": "Point", "coordinates": [76.2773232, 11.6346364] }
    },
    {
      "type": "Feature",
      "properties": {
        "element": "node",
        "id": 6734877112,
        "place": "village",
        "name": "Thaloor"
      },
      "geometry": { "type": "Point", "coordinates": [76.2542857, 11.5849175] }
    },
    {
      "type": "Feature",
      "properties": {
        "element": "node",
        "id": 6751783583,
        "place": "village",
        "name": "Korome"
      },
      "geometry": { "type": "Point", "coordinates": [75.8815687, 11.7443831] }
    },
    {
      "type": "Feature",
      "properties": {
        "element": "node",
        "id": 7128096624,
        "place": "village",
        "name": "Rippon 52"
      },
      "geometry": { "type": "Point", "coordinates": [76.1682956, 11.5389643] }
    },
    {
      "type": "Feature",
      "properties": {
        "element": "node",
        "id": 7342851063,
        "place": "village",
        "name": "Kallumukku"
      },
      "geometry": { "type": "Point", "coordinates": [76.3357329, 11.6834216] }
    },
    {
      "type": "Feature",
      "properties": {
        "element": "node",
        "id": 7470315992,
        "place": "hamlet",
        "name": "Seetha Mount"
      },
      "geometry": { "type": "Point", "coordinates": [76.2013765, 11.8410446] }
    },
    {
      "type": "Feature",
      "properties": {
        "element": "node",
        "id": 7470316000,
        "place": "hamlet",
        "name": "Lourde Nagar"
      },
      "geometry": { "type": "Point", "coordinates": [76.1857464, 11.8483327] }
    },
    {
      "type": "Feature",
      "properties": {
        "element": "node",
        "id": 7472751482,
        "place": "hamlet",
        "name": "Sruthi nagar"
      },
      "geometry": { "type": "Point", "coordinates": [76.1892935, 11.8579807] }
    },
    {
      "type": "Feature",
      "properties": {
        "element": "node",
        "id": 7472817639,
        "place": "village",
        "name": "Kabanigiri"
      },
      "geometry": { "type": "Point", "coordinates": [76.1818007, 11.8589476] }
    },
    {
      "type": "Feature",
      "properties": {
        "element": "node",
        "id": 7475640617,
        "place": "hamlet",
        "name": "Adikolly"
      },
      "geometry": { "type": "Point", "coordinates": [76.1888845, 11.7814316] }
    },
    {
      "type": "Feature",
      "properties": {
        "element": "node",
        "id": 7509778207,
        "place": "village",
        "name": "Nambikolly"
      },
      "geometry": { "type": "Point", "coordinates": [76.3069043, 11.6359693] }
    },
    {
      "type": "Feature",
      "properties": {
        "element": "node",
        "id": 7515334890,
        "place": "village",
        "name": "Paplassery"
      },
      "geometry": { "type": "Point", "coordinates": [76.1892296, 11.7190383] }
    },
    {
      "type": "Feature",
      "properties": {
        "element": "node",
        "id": 7521099020,
        "place": "village",
        "name": "Kattimoola"
      },
      "geometry": { "type": "Point", "coordinates": [75.9254752, 11.802613] }
    },
    {
      "type": "Feature",
      "properties": {
        "element": "node",
        "id": 7533243031,
        "place": "village",
        "name": "palakuly"
      },
      "geometry": { "type": "Point", "coordinates": [75.9878501, 11.8116366] }
    },
    {
      "type": "Feature",
      "properties": {
        "element": "node",
        "id": 7693909634,
        "place": "village",
        "name": "godavari colony"
      },
      "geometry": { "type": "Point", "coordinates": [75.9761116, 11.8328294] }
    },
    {
      "type": "Feature",
      "properties": {
        "element": "node",
        "id": 7761832245,
        "place": "village",
        "name": "Pookode"
      },
      "geometry": { "type": "Point", "coordinates": [76.0305834, 11.5357024] }
    },
    {
      "type": "Feature",
      "properties": {
        "element": "node",
        "id": 8530964313,
        "place": "village",
        "name": "Melmury"
      },
      "geometry": { "type": "Point", "coordinates": [75.9920555, 11.6089377] }
    },
    {
      "type": "Feature",
      "properties": {
        "element": "node",
        "id": 8674773179,
        "place": "hamlet",
        "name": "Attamala"
      },
      "geometry": { "type": "Point", "coordinates": [76.1756093, 11.4987192] }
    },
    {
      "type": "Feature",
      "properties": {
        "element": "node",
        "id": 8682062720,
        "place": "isolated_dwelling",
        "name": "Panaayi Colony"
      },
      "geometry": { "type": "Point", "coordinates": [76.1444301, 11.5993322] }
    },
    {
      "type": "Feature",
      "properties": {
        "element": "node",
        "id": 8682062722,
        "place": "isolated_dwelling",
        "name": "Thanippura Colony"
      },
      "geometry": { "type": "Point", "coordinates": [76.1447433, 11.609522] }
    },
    {
      "type": "Feature",
      "properties": {
        "element": "node",
        "id": 8682062723,
        "place": "isolated_dwelling",
        "name": "Angadivayal Colony"
      },
      "geometry": { "type": "Point", "coordinates": [76.1383681, 11.5978902] }
    },
    {
      "type": "Feature",
      "properties": {
        "element": "node",
        "id": 8682062724,
        "place": "isolated_dwelling",
        "name": "Pulinkandi Colony"
      },
      "geometry": { "type": "Point", "coordinates": [76.13663, 11.6031569] }
    },
    {
      "type": "Feature",
      "properties": {
        "element": "node",
        "id": 8682062725,
        "place": "isolated_dwelling",
        "name": "Thazhe Mukkamkunnu Colony"
      },
      "geometry": { "type": "Point", "coordinates": [76.1422044, 11.5943699] }
    },
    {
      "type": "Feature",
      "properties": {
        "element": "node",
        "id": 8725825572,
        "place": "hamlet",
        "name": "Ambedkar Colony"
      },
      "geometry": { "type": "Point", "coordinates": [76.1507248, 11.4963921] }
    },
    {
      "type": "Feature",
      "properties": {
        "element": "node",
        "id": 8725825573,
        "place": "hamlet",
        "name": "Vellarimala Colony"
      },
      "geometry": { "type": "Point", "coordinates": [76.1614694, 11.5037231] }
    },
    {
      "type": "Feature",
      "properties": {
        "element": "node",
        "id": 8725835604,
        "place": "isolated_dwelling",
        "name": "Poothamala Colony"
      },
      "geometry": { "type": "Point", "coordinates": [76.1542422, 11.5905062] }
    },
    {
      "type": "Feature",
      "properties": {
        "element": "node",
        "id": 8725857559,
        "place": "hamlet",
        "name": "Punchiri Mattam Colony"
      },
      "geometry": { "type": "Point", "coordinates": [76.1516014, 11.4818245] }
    },
    {
      "type": "Feature",
      "properties": {
        "element": "node",
        "id": 8725857561,
        "place": "hamlet",
        "name": "Neelikkap Colony"
      },
      "geometry": { "type": "Point", "coordinates": [76.1532058, 11.5046313] }
    },
    {
      "type": "Feature",
      "properties": {
        "element": "node",
        "id": 8725874606,
        "place": "hamlet",
        "name": "Aranamala"
      },
      "geometry": { "type": "Point", "coordinates": [76.1150318, 11.5145522] }
    },
    {
      "type": "Feature",
      "properties": {
        "element": "node",
        "id": 8749724615,
        "place": "village",
        "name": "ST colony puthiyadam"
      },
      "geometry": { "type": "Point", "coordinates": [75.9582481, 11.8542962] }
    },
    {
      "type": "Feature",
      "properties": {
        "element": "node",
        "id": 8759401452,
        "place": "village",
        "name": "ambalakolly st colony"
      },
      "geometry": { "type": "Point", "coordinates": [75.9590482, 11.8240055] }
    },
    {
      "type": "Feature",
      "properties": {
        "element": "node",
        "id": 8889235087,
        "place": "village",
        "name": "edmana scheduled tribes colony 1"
      },
      "geometry": { "type": "Point", "coordinates": [75.9171162, 11.8262663] }
    },
    {
      "type": "Feature",
      "properties": {
        "element": "node",
        "id": 8889235088,
        "place": "village",
        "name": "Edamana st colony 2"
      },
      "geometry": { "type": "Point", "coordinates": [75.9147782, 11.8266374] }
    },
    {
      "type": "Feature",
      "properties": {
        "element": "node",
        "id": 8892919288,
        "place": "village",
        "name": "kolymannu"
      },
      "geometry": { "type": "Point", "coordinates": [75.8464419, 11.8286769] }
    },
    {
      "type": "Feature",
      "properties": {
        "element": "node",
        "id": 8892919303,
        "place": "village",
        "name": "Choyimoola"
      },
      "geometry": { "type": "Point", "coordinates": [75.8344745, 11.8287845] }
    },
    {
      "type": "Feature",
      "properties": {
        "element": "node",
        "id": 8894011522,
        "place": "village",
        "name": "Alattil"
      },
      "geometry": { "type": "Point", "coordinates": [75.868248, 11.808008] }
    },
    {
      "type": "Feature",
      "properties": {
        "element": "node",
        "id": 9151221714,
        "place": "suburb",
        "name": "Perikkalloor"
      },
      "geometry": { "type": "Point", "coordinates": [76.1492135, 11.8628255] }
    },
    {
      "type": "Feature",
      "properties": {
        "element": "node",
        "id": 9164546019,
        "place": "village",
        "name": "Kalluvettumthazhe"
      },
      "geometry": { "type": "Point", "coordinates": [76.0188827, 11.7160724] }
    },
    {
      "type": "Feature",
      "properties": {
        "element": "node",
        "id": 9187786425,
        "place": "suburb",
        "name": "Old Vythiri"
      },
      "geometry": { "type": "Point", "coordinates": [76.0373104, 11.5409268] }
    },
    {
      "type": "Feature",
      "properties": {
        "element": "node",
        "id": 9188000201,
        "place": "village",
        "name": "Mavilamthodu"
      },
      "geometry": { "type": "Point", "coordinates": [76.21616, 11.8181142] }
    },
    {
      "type": "Feature",
      "properties": {
        "element": "node",
        "id": 9188016663,
        "place": "village",
        "name": "Kappiset"
      },
      "geometry": { "type": "Point", "coordinates": [76.2059502, 11.8029156] }
    },
    {
      "type": "Feature",
      "properties": {
        "element": "node",
        "id": 9331060132,
        "place": "village",
        "name": "Pinangode"
      },
      "geometry": { "type": "Point", "coordinates": [76.0295278, 11.6187238] }
    },
    {
      "type": "Feature",
      "properties": {
        "element": "node",
        "id": 9389817360,
        "place": "village",
        "name": "Kottoor"
      },
      "geometry": { "type": "Point", "coordinates": [76.2339013, 11.5658556] }
    },
    {
      "type": "Feature",
      "properties": {
        "element": "node",
        "id": 9511160918,
        "place": "village",
        "name": "Mundakai"
      },
      "geometry": { "type": "Point", "coordinates": [76.1557245, 11.486475] }
    },
    {
      "type": "Feature",
      "properties": {
        "element": "node",
        "id": 9512700919,
        "place": "village",
        "name": "Moonanakuzhy"
      },
      "geometry": { "type": "Point", "coordinates": [76.1848694, 11.6998691] }
    },
    {
      "type": "Feature",
      "properties": {
        "element": "node",
        "id": 10005761950,
        "place": "hamlet",
        "name": "velangodu colony"
      },
      "geometry": { "type": "Point", "coordinates": [75.9238214, 11.7649978] }
    },
    {
      "type": "Feature",
      "properties": {
        "element": "node",
        "id": 10005761955,
        "place": "hamlet",
        "name": "valeri st colony"
      },
      "geometry": { "type": "Point", "coordinates": [75.9308369, 11.7631611] }
    },
    {
      "type": "Feature",
      "properties": {
        "element": "node",
        "id": 10019840318,
        "place": "hamlet",
        "name": "inderrykunnu st colony"
      },
      "geometry": { "type": "Point", "coordinates": [75.9456443, 11.7482465] }
    },
    {
      "type": "Feature",
      "properties": {
        "element": "node",
        "id": 10019840323,
        "place": "hamlet",
        "name": "laksham veedu colony"
      },
      "geometry": { "type": "Point", "coordinates": [75.937908, 11.7462198] }
    },
    {
      "type": "Feature",
      "properties": {
        "element": "node",
        "id": 10019840324,
        "place": "hamlet",
        "name": "paliyana colony"
      },
      "geometry": { "type": "Point", "coordinates": [75.9337805, 11.7430148] }
    },
    {
      "type": "Feature",
      "properties": {
        "element": "node",
        "id": 10019840341,
        "place": "hamlet",
        "name": "vatteri  st colony"
      },
      "geometry": { "type": "Point", "coordinates": [75.9325332, 11.7537904] }
    },
    {
      "type": "Feature",
      "properties": {
        "element": "node",
        "id": 10019840354,
        "place": "hamlet",
        "name": "konniyodu chola colony"
      },
      "geometry": { "type": "Point", "coordinates": [75.9135341, 11.749479] }
    },
    {
      "type": "Feature",
      "properties": {
        "element": "node",
        "id": 10019840355,
        "place": "hamlet",
        "name": "fitting  st colony"
      },
      "geometry": { "type": "Point", "coordinates": [75.9187859, 11.7465891] }
    },
    {
      "type": "Feature",
      "properties": {
        "element": "node",
        "id": 10019840360,
        "place": "hamlet",
        "name": "kundarakolly colony"
      },
      "geometry": { "type": "Point", "coordinates": [75.9129529, 11.7386246] }
    },
    {
      "type": "Feature",
      "properties": {
        "element": "node",
        "id": 10019840361,
        "place": "hamlet",
        "name": "poorinji colony"
      },
      "geometry": { "type": "Point", "coordinates": [75.9100909, 11.7377613] }
    },
    {
      "type": "Feature",
      "properties": {
        "element": "node",
        "id": 10019840373,
        "place": "hamlet",
        "name": "perinjerimala colony"
      },
      "geometry": { "type": "Point", "coordinates": [75.9037747, 11.7270533] }
    },
    {
      "type": "Feature",
      "properties": {
        "element": "node",
        "id": 10019840425,
        "place": "hamlet",
        "name": "puthenmittam colony"
      },
      "geometry": { "type": "Point", "coordinates": [75.8967684, 11.7474934] }
    },
    {
      "type": "Feature",
      "properties": {
        "element": "node",
        "id": 10019840443,
        "place": "hamlet",
        "name": "Kadaingal colony"
      },
      "geometry": { "type": "Point", "coordinates": [75.8831965, 11.7419645] }
    },
    {
      "type": "Feature",
      "properties": {
        "element": "node",
        "id": 10019840444,
        "place": "hamlet",
        "name": "Avilangadu"
      },
      "geometry": { "type": "Point", "coordinates": [75.8855805, 11.7399454] }
    },
    {
      "type": "Feature",
      "properties": {
        "element": "node",
        "id": 10019840463,
        "place": "hamlet",
        "name": "paleri st colony  1"
      },
      "geometry": { "type": "Point", "coordinates": [75.8838172, 11.7541964] }
    },
    {
      "type": "Feature",
      "properties": {
        "element": "node",
        "id": 10019840464,
        "place": "hamlet",
        "name": "paleri st colony 2"
      },
      "geometry": { "type": "Point", "coordinates": [75.883625, 11.7551201] }
    },
    {
      "type": "Feature",
      "properties": {
        "element": "node",
        "id": 10019840470,
        "place": "hamlet",
        "name": "areekara"
      },
      "geometry": { "type": "Point", "coordinates": [75.8808287, 11.759662] }
    },
    {
      "type": "Feature",
      "properties": {
        "element": "node",
        "id": 10019840471,
        "place": "hamlet",
        "name": "pookkoottu kadav"
      },
      "geometry": { "type": "Point", "coordinates": [75.8795159, 11.7604864] }
    },
    {
      "type": "Feature",
      "properties": {
        "element": "node",
        "id": 10023931806,
        "place": "hamlet",
        "name": "Mullukunny ST colony"
      },
      "geometry": { "type": "Point", "coordinates": [75.9144162, 11.7749671] }
    },
    {
      "type": "Feature",
      "properties": {
        "element": "node",
        "id": 10023931807,
        "place": "hamlet",
        "name": "alakkal  colony"
      },
      "geometry": { "type": "Point", "coordinates": [75.9076106, 11.779499] }
    },
    {
      "type": "Feature",
      "properties": {
        "element": "node",
        "id": 10023931812,
        "place": "hamlet",
        "name": "paachikolli colony"
      },
      "geometry": { "type": "Point", "coordinates": [75.9041193, 11.7762976] }
    },
    {
      "type": "Feature",
      "properties": {
        "element": "node",
        "id": 10023931813,
        "place": "hamlet",
        "name": "adayi colony"
      },
      "geometry": { "type": "Point", "coordinates": [75.9042485, 11.7752811] }
    },
    {
      "type": "Feature",
      "properties": {
        "element": "node",
        "id": 10023983819,
        "place": "hamlet",
        "name": "edamunda colony"
      },
      "geometry": { "type": "Point", "coordinates": [75.9154981, 11.7668529] }
    },
    {
      "type": "Feature",
      "properties": {
        "element": "node",
        "id": 10023983820,
        "place": "hamlet",
        "name": "FRC Colony"
      },
      "geometry": { "type": "Point", "coordinates": [75.9149953, 11.7588247] }
    },
    {
      "type": "Feature",
      "properties": {
        "element": "node",
        "id": 10023983821,
        "place": "hamlet",
        "name": "pathanamukku"
      },
      "geometry": { "type": "Point", "coordinates": [75.9040074, 11.7680093] }
    },
    {
      "type": "Feature",
      "properties": {
        "element": "node",
        "id": 10023983826,
        "place": "hamlet",
        "name": "Korolod"
      },
      "geometry": { "type": "Point", "coordinates": [75.8965014, 11.762747] }
    },
    {
      "type": "Feature",
      "properties": {
        "element": "node",
        "id": 10026059227,
        "place": "hamlet",
        "name": "Neloom   colony"
      },
      "geometry": { "type": "Point", "coordinates": [75.8928552, 11.7659758] }
    },
    {
      "type": "Feature",
      "properties": {
        "element": "node",
        "id": 10026059235,
        "place": "hamlet",
        "name": "kunneri"
      },
      "geometry": { "type": "Point", "coordinates": [75.8858925, 11.7697988] }
    },
    {
      "type": "Feature",
      "properties": {
        "element": "node",
        "id": 10026059246,
        "place": "hamlet",
        "name": "nedumblassery colony"
      },
      "geometry": { "type": "Point", "coordinates": [75.8779705, 11.7747646] }
    },
    {
      "type": "Feature",
      "properties": {
        "element": "node",
        "id": 10026059251,
        "place": "hamlet",
        "name": "Edacheri Colony"
      },
      "geometry": { "type": "Point", "coordinates": [75.8682599, 11.7716684] }
    },
    {
      "type": "Feature",
      "properties": {
        "element": "node",
        "id": 10026059257,
        "place": "hamlet",
        "name": "Pathirimandham colony"
      },
      "geometry": { "type": "Point", "coordinates": [75.8584505, 11.753399] }
    },
    {
      "type": "Feature",
      "properties": {
        "element": "node",
        "id": 10026059262,
        "place": "hamlet",
        "name": "kallara colony"
      },
      "geometry": { "type": "Point", "coordinates": [75.8615503, 11.7621282] }
    },
    {
      "type": "Feature",
      "properties": {
        "element": "node",
        "id": 10026059306,
        "place": "hamlet",
        "name": "Poyil"
      },
      "geometry": { "type": "Point", "coordinates": [75.8537011, 11.7678982] }
    },
    {
      "type": "Feature",
      "properties": {
        "element": "node",
        "id": 10026059307,
        "place": "hamlet",
        "name": "Udhirachira"
      },
      "geometry": { "type": "Point", "coordinates": [75.8554034, 11.7698129] }
    },
    {
      "type": "Feature",
      "properties": {
        "element": "node",
        "id": 10026059316,
        "place": "hamlet",
        "name": "kallara colony"
      },
      "geometry": { "type": "Point", "coordinates": [75.8519285, 11.7738027] }
    },
    {
      "type": "Feature",
      "properties": {
        "element": "node",
        "id": 10026087417,
        "place": "hamlet",
        "name": "edala colony"
      },
      "geometry": { "type": "Point", "coordinates": [75.8531518, 11.7714698] }
    },
    {
      "type": "Feature",
      "properties": {
        "element": "node",
        "id": 10026087418,
        "place": "village",
        "name": "Churuli"
      },
      "geometry": { "type": "Point", "coordinates": [75.8457746, 11.7939649] }
    },
    {
      "type": "Feature",
      "properties": {
        "element": "node",
        "id": 10026087425,
        "place": "hamlet",
        "name": "kombara colony"
      },
      "geometry": { "type": "Point", "coordinates": [75.836821, 11.762036] }
    },
    {
      "type": "Feature",
      "properties": {
        "element": "node",
        "id": 10026087426,
        "place": "hamlet",
        "name": "Kunkichira colony"
      },
      "geometry": { "type": "Point", "coordinates": [75.8335754, 11.7675133] }
    },
    {
      "type": "Feature",
      "properties": {
        "element": "node",
        "id": 10026087435,
        "place": "hamlet",
        "name": "kunjome colony"
      },
      "geometry": { "type": "Point", "coordinates": [75.8492428, 11.7572214] }
    },
    {
      "type": "Feature",
      "properties": {
        "element": "node",
        "id": 10028609482,
        "place": "hamlet",
        "name": "Mottamal Colony"
      },
      "geometry": { "type": "Point", "coordinates": [75.8784098, 11.7445466] }
    },
    {
      "type": "Feature",
      "properties": {
        "element": "node",
        "id": 10028609493,
        "place": "hamlet",
        "name": "Chalil Mala Colonu"
      },
      "geometry": { "type": "Point", "coordinates": [75.8754234, 11.7326147] }
    },
    {
      "type": "Feature",
      "properties": {
        "element": "node",
        "id": 10028609494,
        "place": "hamlet",
        "name": "Cheramoola Colony"
      },
      "geometry": { "type": "Point", "coordinates": [75.877954, 11.7473516] }
    },
    {
      "type": "Feature",
      "properties": {
        "element": "node",
        "id": 10028609511,
        "place": "hamlet",
        "name": "Karimkulam Colony"
      },
      "geometry": { "type": "Point", "coordinates": [75.8639654, 11.7368676] }
    },
    {
      "type": "Feature",
      "properties": {
        "element": "node",
        "id": 10028609512,
        "place": "hamlet",
        "name": "Manappatt Colony"
      },
      "geometry": { "type": "Point", "coordinates": [75.8335633, 11.7375083] }
    },
    {
      "type": "Feature",
      "properties": {
        "element": "node",
        "id": 10028609513,
        "place": "hamlet",
        "name": "Manappatt ST colony"
      },
      "geometry": { "type": "Point", "coordinates": [75.8347275, 11.739285] }
    },
    {
      "type": "Feature",
      "properties": {
        "element": "node",
        "id": 10028609515,
        "place": "hamlet",
        "name": "MAARADI KURICHYA COLONY"
      },
      "geometry": { "type": "Point", "coordinates": [75.8506378, 11.7424678] }
    },
    {
      "type": "Feature",
      "properties": {
        "element": "node",
        "id": 10028609516,
        "place": "hamlet",
        "name": "Pannipadu ST colony"
      },
      "geometry": { "type": "Point", "coordinates": [75.8419555, 11.7303572] }
    },
    {
      "type": "Feature",
      "properties": {
        "element": "node",
        "id": 10028665618,
        "place": "hamlet",
        "name": "Kelakam colony"
      },
      "geometry": { "type": "Point", "coordinates": [75.8579788, 11.7403037] }
    },
    {
      "type": "Feature",
      "properties": {
        "element": "node",
        "id": 10028665619,
        "place": "hamlet",
        "name": "Mundakombu paniya  Colony"
      },
      "geometry": { "type": "Point", "coordinates": [75.8573242, 11.7374735] }
    },
    {
      "type": "Feature",
      "properties": {
        "element": "node",
        "id": 10030732041,
        "place": "hamlet",
        "name": "Cherikkolli"
      },
      "geometry": { "type": "Point", "coordinates": [75.9022622, 11.7560224] }
    },
    {
      "type": "Feature",
      "properties": {
        "element": "node",
        "id": 10035428256,
        "place": "hamlet",
        "name": "Nellarimannam Colony"
      },
      "geometry": { "type": "Point", "coordinates": [75.898659, 11.7379792] }
    },
    {
      "type": "Feature",
      "properties": {
        "element": "node",
        "id": 11375760584,
        "place": "village",
        "name": "Cheeral"
      },
      "geometry": { "type": "Point", "coordinates": [76.3136674, 11.6080915] }
    },
    {
      "type": "Feature",
      "properties": {
        "element": "node",
        "id": 11771405268,
        "place": "hamlet",
        "name": "Cheriyamkolly"
      },
      "geometry": { "type": "Point", "coordinates": [76.0199185, 11.7216074] }
    },
    {
      "type": "Feature",
      "properties": {
        "element": "node",
        "id": 11771513883,
        "place": "hamlet",
        "name": "Kaippattukunnu"
      },
      "geometry": { "type": "Point", "coordinates": [76.0529601, 11.7175224] }
    },
    {
      "type": "Feature",
      "properties": {
        "element": "node",
        "id": 11771769301,
        "place": "hamlet",
        "name": "Pallikkunnu"
      },
      "geometry": { "type": "Point", "coordinates": [76.0561377, 11.6848622] }
    },
    {
      "type": "Feature",
      "properties": {
        "element": "node",
        "id": 11771916435,
        "place": "village",
        "name": "Kottathara"
      },
      "geometry": { "type": "Point", "coordinates": [76.0416419, 11.6650598] }
    },
    {
      "type": "Feature",
      "properties": {
        "element": "node",
        "id": 11771916436,
        "place": "village",
        "name": "Venniyodu"
      },
      "geometry": { "type": "Point", "coordinates": [76.0241865, 11.6792598] }
    },
    {
      "type": "Feature",
      "properties": {
        "element": "node",
        "id": 11772023998,
        "place": "village",
        "name": "Nadavayal"
      },
      "geometry": { "type": "Point", "coordinates": [76.119078, 11.7410773] }
    },
    {
      "type": "Feature",
      "properties": {
        "element": "node",
        "id": 11772051612,
        "place": "hamlet",
        "name": "Varadoor"
      },
      "geometry": { "type": "Point", "coordinates": [76.102155, 11.7139581] }
    },
    {
      "type": "Feature",
      "properties": {
        "element": "node",
        "id": 11772074377,
        "place": "hamlet",
        "name": "Nelliyambam"
      },
      "geometry": { "type": "Point", "coordinates": [76.0969204, 11.7410298] }
    },
    {
      "type": "Feature",
      "properties": {
        "element": "node",
        "id": 11772074378,
        "place": "hamlet",
        "name": "Cheekkalloor"
      },
      "geometry": { "type": "Point", "coordinates": [76.0931666, 11.724951] }
    },
    {
      "type": "Feature",
      "properties": {
        "element": "node",
        "id": 11772099825,
        "place": "village",
        "name": "Kaniyambetta"
      },
      "geometry": { "type": "Point", "coordinates": [76.0807517, 11.6953621] }
    },
    {
      "type": "Feature",
      "properties": {
        "element": "node",
        "id": 11772548137,
        "place": "hamlet",
        "name": "Arinchermala"
      },
      "geometry": { "type": "Point", "coordinates": [76.0678014, 11.705986] }
    },
    {
      "type": "Feature",
      "properties": {
        "element": "node",
        "id": 11808991820,
        "place": "village",
        "name": "Chulliyode"
      },
      "geometry": { "type": "Point", "coordinates": [76.2551187, 11.6012586] }
    },
    {
      "type": "Feature",
      "properties": {
        "element": "node",
        "id": 11808991821,
        "place": "village",
        "name": "Madakkara"
      },
      "geometry": { "type": "Point", "coordinates": [76.2749174, 11.619314] }
    },
    {
      "type": "Feature",
      "properties": {
        "element": "node",
        "id": 11808991822,
        "place": "village",
        "name": "Pazhoor"
      },
      "geometry": { "type": "Point", "coordinates": [76.3104519, 11.6294935] }
    },
    {
      "type": "Feature",
      "properties": {
        "element": "node",
        "id": 12189746106,
        "place": "village",
        "name": "ponnada"
      },
      "geometry": { "type": "Point", "coordinates": [76.0487358, 11.6322347] }
    },
    {
      "type": "Feature",
      "properties": {
        "element": "node",
        "id": 12357491713,
        "place": "hamlet",
        "name": "Vengathode"
      },
      "geometry": { "type": "Point", "coordinates": [76.0124999, 11.5894036] }
    },
    {
      "type": "Feature",
      "properties": {
        "element": "node",
        "id": 12521032076,
        "place": "village",
        "name": "Pakkom"
      },
      "geometry": { "type": "Point", "coordinates": [76.1032386, 11.8017879] }
    },
    {
      "type": "Feature",
      "properties": {
        "element": "node",
        "id": 12526763820,
        "place": "village",
        "name": "Pariyaram"
      },
      "geometry": { "type": "Point", "coordinates": [76.1028275, 11.6513075] }
    },
    {
      "type": "Feature",
      "properties": {
        "element": "node",
        "id": 12526873837,
        "place": "hamlet",
        "name": "Athirattukunnu"
      },
      "geometry": { "type": "Point", "coordinates": [76.1660804, 11.7399138] }
    },
    {
      "type": "Feature",
      "properties": {
        "element": "node",
        "id": 12526873841,
        "place": "hamlet",
        "name": "Manalvayal"
      },
      "geometry": { "type": "Point", "coordinates": [76.1809095, 11.7501994] }
    },
    {
      "type": "Feature",
      "properties": {
        "element": "node",
        "id": 12918829510,
        "place": "hamlet",
        "name": "Irumanathoor"
      },
      "geometry": { "type": "Point", "coordinates": [75.8612715, 11.7963951] }
    },
    {
      "type": "Feature",
      "properties": {
        "element": "node",
        "id": 12918837989,
        "place": "hamlet",
        "name": "Pambala"
      },
      "geometry": { "type": "Point", "coordinates": [75.8474103, 11.7760673] }
    },
    {
      "type": "Feature",
      "properties": {
        "element": "node",
        "id": 12918957619,
        "place": "hamlet",
        "name": "Vimalanagar"
      },
      "geometry": { "type": "Point", "coordinates": [75.9638107, 11.8109869] }
    },
    {
      "type": "Feature",
      "properties": {
        "element": "node",
        "id": 12918981982,
        "place": "hamlet",
        "name": "Kulathada"
      },
      "geometry": { "type": "Point", "coordinates": [75.9340488, 11.7794687] }
    },
    {
      "type": "Feature",
      "properties": {
        "element": "node",
        "id": 12921619026,
        "place": "hamlet",
        "name": "Ambukuthy"
      },
      "geometry": { "type": "Point", "coordinates": [76.242974, 11.6217386] }
    },
    {
      "type": "Feature",
      "properties": {
        "element": "node",
        "id": 12959779829,
        "place": "hamlet",
        "name": "Cheengavallam"
      },
      "geometry": { "type": "Point", "coordinates": [76.203616, 11.5911496] }
    },
    {
      "type": "Feature",
      "properties": {
        "element": "node",
        "id": 13046472602,
        "place": "hamlet",
        "name": "Chulika"
      },
      "geometry": { "type": "Point", "coordinates": [76.1293133, 11.5322827] }
    },
    {
      "type": "Feature",
      "properties": {
        "element": "node",
        "id": 13048296194,
        "place": "hamlet",
        "name": "Puthumala"
      },
      "geometry": { "type": "Point", "coordinates": [76.1406053, 11.5013341] }
    },
    {
      "type": "Feature",
      "properties": {
        "element": "relation",
        "id": 15936823,
        "place": "hamlet",
        "name": "Edacode Colony"
      },
      "geometry": {
        "type": "Polygon",
        "coordinates": [
          [
            [76.0837289, 11.8412744],
            [76.0832883, 11.8415243],
            [76.0827967, 11.8418824],
            [76.0829146, 11.8419901],
            [76.0831008, 11.8420787],
            [76.0834154, 11.8421092],
            [76.0838049, 11.8421336],
            [76.0842074, 11.842124],
            [76.0840931, 11.8417914],
            [76.0839327, 11.8415219],
            [76.0837289, 11.8412744]
          ]
        ]
      }
    },
    {
      "type": "Feature",
      "properties": {
        "element": "way",
        "id": 936173975,
        "place": "hamlet",
        "name": "Mundakai"
      },
      "geometry": {
        "type": "Polygon",
        "coordinates": [
          [
            [76.1563824, 11.4855215],
            [76.1584007, 11.4860842],
            [76.1583586, 11.4867817],
            [76.1561309, 11.4869672],
            [76.154741, 11.4871161],
            [76.1543119, 11.4860555],
            [76.1544773, 11.485421],
            [76.1563824, 11.4855215]
          ]
        ]
      }
    },
    {
      "type": "Feature",
      "properties": {
        "element": "way",
        "id": 937014687,
        "place": "town",
        "name": "Attamaala"
      },
      "geometry": {
        "type": "Polygon",
        "coordinates": [
          [
            [76.1746717, 11.499466],
            [76.1768077, 11.498877],
            [76.1764422, 11.4972057],
            [76.1743712, 11.4978663],
            [76.1746717, 11.499466]
          ]
        ]
      }
    },
    {
      "type": "Feature",
      "properties": {
        "element": "way",
        "id": 1148405021,
        "place": "hamlet",
        "name": "Vellappankandi"
      },
      "geometry": {
        "type": "Polygon",
        "coordinates": [
          [
            [76.1389124, 11.5179048],
            [76.1405969, 11.5172635],
            [76.1420238, 11.5163909],
            [76.1430538, 11.516086],
            [76.1435741, 11.5150821],
            [76.1435795, 11.5140203],
            [76.1431503, 11.5126483],
            [76.142571, 11.5120281],
            [76.1413586, 11.5122068],
            [76.1405754, 11.5118598],
            [76.1396849, 11.5115024],
            [76.1389339, 11.5113237],
            [76.1381078, 11.511208],
            [76.1373997, 11.5112501],
            [76.1367023, 11.5115445],
            [76.1361015, 11.5116706],
            [76.1352888, 11.5119913],
            [76.1348516, 11.5123592],
            [76.1342347, 11.5122015],
            [76.1339557, 11.5131004],
            [76.1341381, 11.5142778],
            [76.1351681, 11.5153712],
            [76.1351788, 11.5158232],
            [76.13608, 11.5162017],
            [76.1367345, 11.5161701],
            [76.138258, 11.5170743],
            [76.1383223, 11.5175578],
            [76.1389124, 11.5179048]
          ]
        ]
      }
    }
  ]
}
